{"type": "FeatureCollection", "features": [ {"type": "Feature", "properties": {"norad_id": 34014, "name": "COSMOS 2251 DEB", "group": "cosmos-2251-debris", "lat": -45.255092662532675, "lon": 131.4320597463238, "alt_km": 680.5218217919391, "timestamp": "2025-12-05T14:45:15.690959+00:00", "meta": {"OBJECT_NAME": "COSMOS 2251 DEB", "OBJECT_ID": "1993-036GZ", "EPOCH": "2025-12-04T07:18:11.252160", "MEAN_MOTION": 14.72964202, "ECCENTRICITY": 0.0036764, "INCLINATION": 74.0173, "RA_OF_ASC_NODE": 297.1782, "ARG_OF_PERICENTER": 79.1608, "MEAN_ANOMALY": 41.9942, "EPHEMERIS_TYPE": 0, "CLASSIFICATION_TYPE": "U", "NORAD_CAT_ID": 34014, "ELEMENT_SET_NO": 999, "REV_AT_EPOCH": 89179, "BSTAR": 0.0023991, "MEAN_MOTION_DOT": 0.00015567, "MEAN_MOTION_DDOT": 0}, "tle": {"line1": "1 34014U 93036GZ  25338.30429690  .00015567  00000+0  23991-2 0  9996", "line2": "2 34014  74.0173 297.1782 0036764  79.1608  41.9942 14.72964202891799"}}, "geometry": {"type": "Point", "coordinates": [131.4320597463238, -45.255092662532675]}}, {"type": "Feature", "properties": {"norad_id": 34015, "name": "COSMOS 2251 DEB", "group": "cosmos-2251-debris", "lat": -43.74981484651146, "lon": 157.11618284043251, "alt_km": 688.3311551928691, "timestamp": "2025-12-05T14:45:15.690970+00:00", "meta": {"OBJECT_NAME": "COSMOS 2251 DEB", "OBJECT_ID": "1993-036HA", "EPOCH": "2025-12-04T16:15:47.772000", "MEAN_MOTION": 14.60092366, "ECCENTRICITY": 0.0021163, "INCLINATION": 74.0231, "RA_OF_ASC_NODE": 174.8233, "ARG_OF_PERICENTER": 272.1647, "MEAN_ANOMALY": 157.8756, "EPHEMERIS_TYPE": 0, "CLASSIFICATION_TYPE": "U", "NORAD_CAT_ID": 34015, "ELEMENT_SET_NO": 999, "REV_AT_EPOCH": 88413, "BSTAR": 0.0028018, "MEAN_MOTION_DOT": 0.00013512, "MEAN_MOTION_DDOT": 0}, "tle": {"line1": "1 34015U 93036HA  25338.67763625  .00013512  00000+0  28018-2 0  9999", "line2": "2 34015  74.0231 174.8233 0021163 272.1647 157.8756 14.60092366884132"}}, "geometry": {"type": "Point", "coordinates": [157.11618284043251, -43.74981484651146]}}, {"type": "Feature", "properties": {"norad_id": 34018, "name": "COSMOS 2251 DEB", "group": "cosmos-2251-debris", "lat": -35.09287916121259, "lon": 92.44350673316508, "alt_km": 1159.8006774403038, "timestamp": "2025-12-05T14:45:15.690980+00:00", "meta": {"OBJECT_NAME": "COSMOS 2251 DEB", "OBJECT_ID": "1993-036HD", "EPOCH": "2025-12-04T16:38:53.054304", "MEAN_MOTION": 13.81053187, "ECCENTRICITY": 0.0264223, "INCLINATION": 73.8769, "RA_OF_ASC_NODE": 105.7301, "ARG_OF_PERICENTER": 143.1332, "MEAN_ANOMALY": 282.5362, "EPHEMERIS_TYPE": 0, "CLASSIFICATION_TYPE": "U", "NORAD_CAT_ID": 34018, "ELEMENT_SET_NO": 999, "REV_AT_EPOCH": 84546, "BSTAR": 0.0010705, "MEAN_MOTION_DOT": 1.452e-05, "MEAN_MOTION_DDOT": 0}, "tle": {"line1": "1 34018U 93036HD  25338.69366961  .00001452  00000+0  10705-2 0  9990", "line2": "2 34018  73.8769 105.7301 0264223 143.1332 282.5362 13.81053187845463"}}, "geometry": {"type": "Point", "coordinates": [92.44350673316508, -35.09287916121259]}}, {"type": "Feature", "properties": {"norad_id": 34019, "name": "COSMOS 2251 DEB", "group": "cosmos-2251-debris", "lat": 5.979215231597741, "lon": -117.88385437338904, "alt_km": 766.7042196582988, "timestamp": "2025-12-05T14:45:15.690990+00:00", "meta": {"OBJECT_NAME": "COSMOS 2251 DEB", "OBJECT_ID": "1993-036HE", "EPOCH": "2025-12-04T16:44:50.969760", "MEAN_MOTION": 14.33873182, "ECCENTRICITY": 0.0062726, "INCLINATION": 73.9553, "RA_OF_ASC_NODE": 65.5286, "ARG_OF_PERICENTER": 247.9044, "MEAN_ANOMALY": 235.0557, "EPHEMERIS_TYPE": 0, "CLASSIFICATION_TYPE": "U", "NORAD_CAT_ID": 34019, "ELEMENT_SET_NO": 999, "REV_AT_EPOCH": 87405, "BSTAR": 0.0020617, "MEAN_MOTION_DOT": 5.847e-05, "MEAN_MOTION_DDOT": 0}, "tle": {"line1": "1 34019U 93036HE  25338.69781215  .00005847  00000+0  20617-2 0  9999", "line2": "2 34019  73.9553  65.5286 0062726 247.9044 235.0557 14.33873182874057"}}, "geometry": {"type": "Point", "coordinates": [-117.88385437338904, 5.979215231597741]}}, {"type": "Feature", "properties": {"norad_id": 34021, "name": "COSMOS 2251 DEB", "group": "cosmos-2251-debris", "lat": -41.03911198128436, "lon": -22.363381745161004, "alt_km": 725.839186616905, "timestamp": "2025-12-05T14:45:15.691000+00:00", "meta": {"OBJECT_NAME": "COSMOS 2251 DEB", "OBJECT_ID": "1993-036HG", "EPOCH": "2025-12-04T11:22:53.599008", "MEAN_MOTION": 14.49901335, "ECCENTRICITY": 0.0020746, "INCLINATION": 74.0346, "RA_OF_ASC_NODE": 145.347, "ARG_OF_PERICENTER": 290.1488, "MEAN_ANOMALY": 102.2802, "EPHEMERIS_TYPE": 0, "CLASSIFICATION_TYPE": "U", "NORAD_CAT_ID": 34021, "ELEMENT_SET_NO": 999, "REV_AT_EPOCH": 88510, "BSTAR": 0.00082704, "MEAN_MOTION_DOT": 3.179e-05, "MEAN_MOTION_DDOT": 0}, "tle": {"line1": "1 34021U 93036HG  25338.47423147  .00003179  00000+0  82704-3 0  9997", "line2": "2 34021  74.0346 145.3470 0020746 290.1488 102.2802 14.49901335885107"}}, "geometry": {"type": "Point", "coordinates": [-22.363381745161004, -41.03911198128436]}}, {"type": "Feature", "properties": {"norad_id": 34022, "name": "COSMOS 2251 DEB", "group": "cosmos-2251-debris", "lat": -37.78125750057933, "lon": -88.880635063482, "alt_km": 754.1032502411335, "timestamp": "2025-12-05T14:45:15.691010+00:00", "meta": {"OBJECT_NAME": "COSMOS 2251 DEB", "OBJECT_ID": "1993-036HH", "EPOCH": "2025-12-04T07:48:14.111712", "MEAN_MOTION": 14.38942659, "ECCENTRICITY": 0.0022412, "INCLINATION": 74.0538, "RA_OF_ASC_NODE": 286.2993, "ARG_OF_PERICENTER": 352.8277, "MEAN_ANOMALY": 130.1128, "EPHEMERIS_TYPE": 0, "CLASSIFICATION_TYPE": "U", "NORAD_CAT_ID": 34022, "ELEMENT_SET_NO": 999, "REV_AT_EPOCH": 88074, "BSTAR": 0.0004991, "MEAN_MOTION_DOT": 1.517e-05, "MEAN_MOTION_DDOT": 0}, "tle": {"line1": "1 34022U 93036HH  25338.32516333  .00001517  00000+0  49910-3 0  9998", "line2": "2 34022  74.0538 286.2993 0022412 352.8277 130.1128 14.38942659880748"}}, "geometry": {"type": "Point", "coordinates": [-88.880635063482, -37.78125750057933]}}, {"type": "Feature", "properties": {"norad_id": 34023, "name": "COSMOS 2251 DEB", "group": "cosmos-2251-debris", "lat": -18.44163638613818, "lon": 90.41032494196457, "alt_km": 773.7301976947101, "timestamp": "2025-12-05T14:45:15.691020+00:00", "meta": {"OBJECT_NAME": "COSMOS 2251 DEB", "OBJECT_ID": "1993-036HJ", "EPOCH": "2025-12-04T13:38:21.570144", "MEAN_MOTION": 14.40532219, "ECCENTRICITY": 0.0018113, "INCLINATION": 74.0248, "RA_OF_ASC_NODE": 266.8646, "ARG_OF_PERICENTER": 3.8669, "MEAN_ANOMALY": 170.6235, "EPHEMERIS_TYPE": 0, "CLASSIFICATION_TYPE": "U", "NORAD_CAT_ID": 34023, "ELEMENT_SET_NO": 999, "REV_AT_EPOCH": 88096, "BSTAR": 0.00068779, "MEAN_MOTION_DOT": 2.168e-05, "MEAN_MOTION_DDOT": 0}, "tle": {"line1": "1 34023U 93036HJ  25338.56830521  .00002168  00000+0  68779-3 0  9990", "line2": "2 34023  74.0248 266.8646 0018113   3.8669 170.6235 14.40532219880969"}}, "geometry": {"type": "Point", "coordinates": [90.41032494196457, -18.44163638613818]}}, {"type": "Feature", "properties": {"norad_id": 34024, "name": "COSMOS 2251 DEB", "group": "cosmos-2251-debris", "lat": -18.62971714139684, "lon": -36.47980873508802, "alt_km": 767.3130236127608, "timestamp": "2025-12-05T14:45:15.691030+00:00", "meta": {"OBJECT_NAME": "COSMOS 2251 DEB", "OBJECT_ID": "1993-036HK", "EPOCH": "2025-12-04T10:59:28.716000", "MEAN_MOTION": 14.35381918, "ECCENTRICITY": 0.0020645, "INCLINATION": 74.0462, "RA_OF_ASC_NODE": 331.1734, "ARG_OF_PERICENTER": 24.0772, "MEAN_ANOMALY": 101.5964, "EPHEMERIS_TYPE": 0, "CLASSIFICATION_TYPE": "U", "NORAD_CAT_ID": 34024, "ELEMENT_SET_NO": 999, "REV_AT_EPOCH": 87905, "BSTAR": 0.00036807, "MEAN_MOTION_DOT": 1.033e-05, "MEAN_MOTION_DDOT": 0}, "tle": {"line1": "1 34024U 93036HK  25338.45797125  .00001033  00000+0  36807-3 0  9998", "line2": "2 34024  74.0462 331.1734 0020645  24.0772 101.5964 14.35381918879057"}}, "geometry": {"type": "Point", "coordinates": [-36.47980873508802, -18.62971714139684]}}, {"type": "Feature", "properties": {"norad_id": 34026, "name": "COSMOS 2251 DEB", "group": "cosmos-2251-debris", "lat": -41.50507107672538, "lon": -175.92584487992113, "alt_km": 763.4179768565245, "timestamp": "2025-12-05T14:45:15.691040+00:00", "meta": {"OBJECT_NAME": "COSMOS 2251 DEB", "OBJECT_ID": "1993-036HM", "EPOCH": "2025-12-04T12:02:58.383168", "MEAN_MOTION": 13.65285004, "ECCENTRICITY": 0.0351163, "INCLINATION": 73.7671, "RA_OF_ASC_NODE": 350.9846, "ARG_OF_PERICENTER": 222.1971, "MEAN_ANOMALY": 294.1928, "EPHEMERIS_TYPE": 0, "CLASSIFICATION_TYPE": "U", "NORAD_CAT_ID": 34026, "ELEMENT_SET_NO": 999, "REV_AT_EPOCH": 83419, "BSTAR": 0.0016544, "MEAN_MOTION_DOT": 2.025e-05, "MEAN_MOTION_DDOT": 0}, "tle": {"line1": "1 34026U 93036HM  25338.50206462  .00002025  00000+0  16544-2 0  9992", "line2": "2 34026  73.7671 350.9846 0351163 222.1971 294.1928 13.65285004834190"}}, "geometry": {"type": "Point", "coordinates": [-175.92584487992113, -41.50507107672538]}}, {"type": "Feature", "properties": {"norad_id": 34028, "name": "COSMOS 2251 DEB", "group": "cosmos-2251-debris", "lat": -51.15111477129146, "lon": -22.861388565074694, "alt_km": 1591.3380385248765, "timestamp": "2025-12-05T14:45:15.691051+00:00", "meta": {"OBJECT_NAME": "COSMOS 2251 DEB", "OBJECT_ID": "1993-036HP", "EPOCH": "2025-12-04T12:34:09.192000", "MEAN_MOTION": 13.20616679, "ECCENTRICITY": 0.0544035, "INCLINATION": 73.8835, "RA_OF_ASC_NODE": 359.847, "ARG_OF_PERICENTER": 139.0981, "MEAN_ANOMALY": 20.3029, "EPHEMERIS_TYPE": 0, "CLASSIFICATION_TYPE": "U", "NORAD_CAT_ID": 34028, "ELEMENT_SET_NO": 999, "REV_AT_EPOCH": 80899, "BSTAR": 0.00029572, "MEAN_MOTION_DOT": 2.44e-06, "MEAN_MOTION_DDOT": 0}, "tle": {"line1": "1 34028U 93036HP  25338.52371750  .00000244  00000+0  29572-3 0  9996", "line2": "2 34028  73.8835 359.8470 0544035 139.0981  20.3029 13.20616679808992"}}, "geometry": {"type": "Point", "coordinates": [-22.861388565074694, -51.15111477129146]}}]}